[
    {
        "Altitude(m)": 702908.2507578388,
        "Argument of Periapsis(deg)": 0.010251109067964361,
        "Eccentricity": 0.0,
        "Inclination(deg)": 45.0,
        "Latitude(deg)": 18.609619788483574,
        "Longitude(deg)": -86.12596242686786,
        "Mean Anomaly(deg)": -333.2565050172673,
        "RAAN(deg)": 354.99032325268763,
        "Satellite Name": "Constellation 1 1563",
        "Satellite Number": 1563,
        "Semi-Major Axis(m)": 7083131.272910544,
        "Time(s)": 171
    },
    {
        "Altitude(m)": 702911.0595155079,
        "Argument of Periapsis(deg)": 0.010311057074209765,
        "Eccentricity": 0.0,
        "Inclination(deg)": 45.0,
        "Latitude(deg)": 18.650309293211112,
        "Longitude(deg)": -86.08235718303199,
        "Mean Anomaly(deg)": -333.19580387701734,
        "RAAN(deg)": 354.99026666352205,
        "Satellite Name": "Constellation 1 1563",
        "Satellite Number": 1563,
        "Semi-Major Axis(m)": 7083131.272910544,
        "Time(s)": 172
    },
    {
        "Altitude(m)": 702913.8832216458,
        "Argument of Periapsis(deg)": 0.010371005080455171,
        "Eccentricity": 0.0,
        "Inclination(deg)": 45.0,
        "Latitude(deg)": 18.690986527921382,
        "Longitude(deg)": -86.03872919272517,
        "Mean Anomaly(deg)": -333.13510273676746,
        "RAAN(deg)": 354.9902100743565,
        "Satellite Name": "Constellation 1 1563",
        "Satellite Number": 1563,
        "Semi-Major Axis(m)": 7083131.272910544,
        "Time(s)": 173
    },
    {
        "Altitude(m)": 702916.7218464947,
        "Argument of Periapsis(deg)": 0.010430953086700577,
        "Eccentricity": 0.0,
        "Inclination(deg)": 45.0,
        "Latitude(deg)": 18.731651458181954,
        "Longitude(deg)": -85.9950783987274,
        "Mean Anomaly(deg)": -333.0744015965176,
        "RAAN(deg)": 354.9901534851909,
        "Satellite Name": "Constellation 1 1563",
        "Satellite Number": 1563,
        "Semi-Major Axis(m)": 7083131.272910544,
        "Time(s)": 174
    },
    {
        "Altitude(m)": 702919.5753602609,
        "Argument of Periapsis(deg)": 0.010490901092945983,
        "Eccentricity": 0.0,
        "Inclination(deg)": 45.0,
        "Latitude(deg)": 18.7723040495155,
        "Longitude(deg)": -85.95140474378852,
        "Mean Anomaly(deg)": -333.01370045626766,
        "RAAN(deg)": 354.9900968960253,
        "Satellite Name": "Constellation 1 1563",
        "Satellite Number": 1563,
        "Semi-Major Axis(m)": 7083131.272910544,
        "Time(s)": 175
    },
    {
        "Altitude(m)": 702922.4437330792,
        "Argument of Periapsis(deg)": 0.010550849099191389,
        "Eccentricity": 0.0,
        "Inclination(deg)": 45.0,
        "Latitude(deg)": 18.81294426739969,
        "Longitude(deg)": -85.90770817062838,
        "Mean Anomaly(deg)": -332.9529993160178,
        "RAAN(deg)": 354.9900403068598,
        "Satellite Name": "Constellation 1 1563",
        "Satellite Number": 1563,
        "Semi-Major Axis(m)": 7083131.272910544,
        "Time(s)": 176
    },
    {
        "Altitude(m)": 702925.3269350352,
        "Argument of Periapsis(deg)": 0.010610797105436795,
        "Eccentricity": 0.0,
        "Inclination(deg)": 45.0,
        "Latitude(deg)": 18.853572077266865,
        "Longitude(deg)": -85.86398862193695,
        "Mean Anomaly(deg)": -332.89229817576785,
        "RAAN(deg)": 354.9899837176942,
        "Satellite Name": "Constellation 1 1563",
        "Satellite Number": 1563,
        "Semi-Major Axis(m)": 7083131.272910544,
        "Time(s)": 177
    },
    {
        "Altitude(m)": 702928.2249361463,
        "Argument of Periapsis(deg)": 0.0106707451116822,
        "Eccentricity": 0.0,
        "Inclination(deg)": 45.0,
        "Latitude(deg)": 18.89418744450427,
        "Longitude(deg)": -85.82024620847098,
        "Mean Anomaly(deg)": -332.831597035518,
        "RAAN(deg)": 354.9899271285287,
        "Satellite Name": "Constellation 1 1563",
        "Satellite Number": 1563,
        "Semi-Major Axis(m)": 7083131.272910544,
        "Time(s)": 178
    },
    {
        "Altitude(m)": 702931.1377063735,
        "Argument of Periapsis(deg)": 0.010730693117927606,
        "Eccentricity": 0.0,
        "Inclination(deg)": 45.0,
        "Latitude(deg)": 18.934790334453552,
        "Longitude(deg)": -85.77648053666687,
        "Mean Anomaly(deg)": -332.77089589526804,
        "RAAN(deg)": 354.98987053936304,
        "Satellite Name": "Constellation 1 1563",
        "Satellite Number": 1563,
        "Semi-Major Axis(m)": 7083131.272910544,
        "Time(s)": 179
    },
    {
        "Altitude(m)": 702934.0652156328,
        "Argument of Periapsis(deg)": 0.01079064112417301,
        "Eccentricity": 0.0,
        "Inclination(deg)": 45.0,
        "Latitude(deg)": 18.97538071241103,
        "Longitude(deg)": -85.73269171722148,
        "Mean Anomaly(deg)": -332.71019475501816,
        "RAAN(deg)": 354.98981395019746,
        "Satellite Name": "Constellation 1 1563",
        "Satellite Number": 1563,
        "Semi-Major Axis(m)": 7083131.272910544,
        "Time(s)": 180
    },
    {
        "Altitude(m)": 702937.0074337737,
        "Argument of Periapsis(deg)": 0.010850589130418416,
        "Eccentricity": 0.0,
        "Inclination(deg)": 45.0,
        "Latitude(deg)": 19.015958543627264,
        "Longitude(deg)": -85.68887969270538,
        "Mean Anomaly(deg)": -332.64949361476823,
        "RAAN(deg)": 354.98975736103193,
        "Satellite Name": "Constellation 1 1563",
        "Satellite Number": 1563,
        "Semi-Major Axis(m)": 7083131.272910544,
        "Time(s)": 181
    },
    {
        "Altitude(m)": 702939.9643305828,
        "Argument of Periapsis(deg)": 0.01091053713666382,
        "Eccentricity": 0.0,
        "Inclination(deg)": 45.0,
        "Latitude(deg)": 19.056523793307065,
        "Longitude(deg)": -85.64504440565922,
        "Mean Anomaly(deg)": -332.5887924745183,
        "RAAN(deg)": 354.98970077186635,
        "Satellite Name": "Constellation 1 1563",
        "Satellite Number": 1563,
        "Semi-Major Axis(m)": 7083131.272910544,
        "Time(s)": 182
    },
    {
        "Altitude(m)": 702942.9358758063,
        "Argument of Periapsis(deg)": 0.010970485142909228,
        "Eccentricity": 0.0,
        "Inclination(deg)": 45.0,
        "Latitude(deg)": 19.097076426609455,
        "Longitude(deg)": -85.60118579859386,
        "Mean Anomaly(deg)": -332.5280913342684,
        "RAAN(deg)": 354.98964418270083,
        "Satellite Name": "Constellation 1 1563",
        "Satellite Number": 1563,
        "Semi-Major Axis(m)": 7083131.272910544,
        "Time(s)": 183
    },
    {
        "Altitude(m)": 702945.9220391216,
        "Argument of Periapsis(deg)": 0.011030433149154634,
        "Eccentricity": 0.0,
        "Inclination(deg)": 45.0,
        "Latitude(deg)": 19.137616408647364,
        "Longitude(deg)": -85.55730381399086,
        "Mean Anomaly(deg)": -332.46739019401855,
        "RAAN(deg)": 354.9895875935352,
        "Satellite Name": "Constellation 1 1563",
        "Satellite Number": 1563,
        "Semi-Major Axis(m)": 7083131.272910544,
        "Time(s)": 184
    },
    {
        "Altitude(m)": 702948.9227901425,
        "Argument of Periapsis(deg)": 0.01109038115540004,
        "Eccentricity": 0.0,
        "Inclination(deg)": 45.0,
        "Latitude(deg)": 19.178143704487805,
        "Longitude(deg)": -85.51339856239859,
        "Mean Anomaly(deg)": -332.4066890537687,
        "RAAN(deg)": 354.9895310043696,
        "Satellite Name": "Constellation 1 1563",
        "Satellite Number": 1563,
        "Semi-Major Axis(m)": 7083131.272910544,
        "Time(s)": 185
    },
    {
        "Altitude(m)": 702951.9380984511,
        "Argument of Periapsis(deg)": 0.011150329161645444,
        "Eccentricity": 0.0,
        "Inclination(deg)": 45.0,
        "Latitude(deg)": 19.218658279151306,
        "Longitude(deg)": -85.46946965004561,
        "Mean Anomaly(deg)": -332.34598791351874,
        "RAAN(deg)": 354.9894744152041,
        "Satellite Name": "Constellation 1 1563",
        "Satellite Number": 1563,
        "Semi-Major Axis(m)": 7083131.272910544,
        "Time(s)": 186
    },
    {
        "Altitude(m)": 702954.9679335452,
        "Argument of Periapsis(deg)": 0.01121027716789085,
        "Eccentricity": 0.0,
        "Inclination(deg)": 45.0,
        "Latitude(deg)": 19.259160097612288,
        "Longitude(deg)": -85.42551718742155,
        "Mean Anomaly(deg)": -332.28528677326887,
        "RAAN(deg)": 354.9894178260385,
        "Satellite Name": "Constellation 1 1563",
        "Satellite Number": 1563,
        "Semi-Major Axis(m)": 7083131.272910544,
        "Time(s)": 187
    },
    {
        "Altitude(m)": 702958.0122648907,
        "Argument of Periapsis(deg)": 0.011270225174136258,
        "Eccentricity": 0.0,
        "Inclination(deg)": 45.0,
        "Latitude(deg)": 19.29964912479861,
        "Longitude(deg)": -85.38154111688964,
        "Mean Anomaly(deg)": -332.224585633019,
        "RAAN(deg)": 354.989361236873,
        "Satellite Name": "Constellation 1 1563",
        "Satellite Number": 1563,
        "Semi-Major Axis(m)": 7083131.272910544,
        "Time(s)": 188
    },
    {
        "Altitude(m)": 702961.0710618722,
        "Argument of Periapsis(deg)": 0.011330173180381662,
        "Eccentricity": 0.0,
        "Inclination(deg)": 45.0,
        "Latitude(deg)": 19.340125325591682,
        "Longitude(deg)": -85.3375413807839,
        "Mean Anomaly(deg)": -332.16388449276906,
        "RAAN(deg)": 354.9893046477074,
        "Satellite Name": "Constellation 1 1563",
        "Satellite Number": 1563,
        "Semi-Major Axis(m)": 7083131.272910544,
        "Time(s)": 189
    }
]